NAVSTAR 77 (USA 289)    
1 43873U 18109A   24295.97116404  .00000027  00000+0  00000+0 0  9995
2 43873  55.3492 116.0153 0031334 191.7695 339.9772  2.00560867 42970
